OPTICUBE 04             
1 41851U 16067D   19072.88020132  .00000660  00000-0  62936-4 0  9994
2 41851  97.9136 169.3518 0008522 358.5793   1.5402 14.96770085127432
AEROCUBE 8D             
1 41852U 16067E   19073.21061278  .00000731  00000-0  69358-4 0  9993
2 41852  97.9147 169.5122 0009177 356.2321   3.8829 14.96654593127463
AEROCUBE 8C             
1 41853U 16067F   19073.23120711 -.00000038  00000-0  20131-5 0  9992
2 41853  97.9149 169.4773 0009848 356.8486   3.2672 14.96622496127467
PROMETHEUS 2-1          
1 41854U 16067G   19073.21152649  .00000890  00000-0  82978-4 0  9997
2 41854  97.9154 169.5506 0009779 356.4064   3.7085 14.96804219127468
PROMETHEUS 2-3          
1 41855U 16067H   19072.87990920  .00000918  00000-0  85457-4 0  9997
2 41855  97.9157 169.2271 0010026 357.9188   2.1989 14.96808007127418
INS-1B                  
1 41954U 17008G   19072.76845666  .00001172  00000-0  51749-4 0  9997
2 41954  97.4111 139.0424 0010759 121.9484 238.2801 15.23680345115044
BGUSAT                  
1 41999U 17008BD  19072.81923437  .00001937  00000-0  78855-4 0  9991
2 41999  97.4173 141.0683 0009535 134.4842 225.7177 15.25674680114524
DIDO-2                  
1 42000U 17008BE  19072.82240501  .00000914  00000-0  40993-4 0  9996
2 42000  97.4125 139.6272 0009690 137.4346 222.7644 15.23709188114454
PEASSS                  
1 42015U 17008BV  19072.91139588  .00001027  00000-0  44513-4 0  9992
2 42015  97.4129 140.5256 0007499 140.1985 219.9804 15.24618387115001
AL-FARABI 1             
1 42016U 17008BW  19072.75155508  .00001349  00000-0  56621-4 0  9995
2 42016  97.4143 140.8016 0007370 140.1546 220.0234 15.25186657115120
NAYIF-1 (EO-88)         
1 42017U 17008BX  19072.67547008  .00001379  00000-0  57748-4 0  9991
2 42017  97.4139 140.7353 0007362 140.4835 219.6941 15.25216436115133
PHOENIX                 
1 42706U 98067LP  19073.13191131  .00110201  00000-0  37802-3 0  9997
2 42706  51.6257  44.8556 0003729 111.3709 248.7694 15.88829586104490
ALTAIR PATHFINDER       
1 42711U 98067LS  19072.98458942  .00027624  00000-0  19233-3 0  9995
2 42711  51.6322  68.9435 0003926 107.7500 252.3927 15.74140767103827
SHARC                   
1 42712U 98067LT  19073.18777093  .00104816  00000-0  39129-3 0  9995
2 42712  51.6294  61.2523 0004381  92.0190 268.1316 15.87138333104184
ZA-AEROSAT              
1 42713U 98067LU  19073.17562405  .00068926  00000-0  27075-3 0  9992
2 42713  51.6321  50.5148 0003946 104.1682 255.9761 15.86259689104081
CSUNSAT1                
1 42715U 98067LW  19073.17288809  .00095668  14499-4  31491-3 0  9998
2 42715  51.6288  46.6897 0004767 110.1674 249.9845 15.90445940104136
NJUST-1                 
1 42722U 98067MB  19073.19233646  .00050000  00000-0  24130-3 0  9999
2 42722  51.6354  55.8002 0003909 137.7793 311.5043 15.82056293103081
LILACSAT-1 (LO-90)      
1 42725U 98067ME  19073.13256451  .00335833  62593-4  47090-3 0  9994
2 42725  51.6330  39.3286 0004356 131.5540 316.3659 16.05250462103208
NSIGHT                  
1 42726U 98067MF  19073.18107161  .00015912  00000-0  14879-3 0  9996
2 42726  51.6373  80.9790 0004569 149.9971 210.1288 15.67442755102668
SNUSAT-1B               
1 42727U 98067MG  19073.12549954  .00294947  49224-4  47794-3 0  9995
2 42727  51.6232  40.1191 0005872 128.6033 231.5504 16.02864835103157
SNUSAT-1                
1 42733U 98067MN  19073.19338602  .04923952  12173-4  72461-3 0  9996
2 42733  51.6140  32.8914 0004554 201.7622 158.3208 16.33705008103142
BEEAGLESAT              
1 42736U 98067MR  19073.17645967  .00112491  15914-4  33634-3 0  9991
2 42736  51.6283  45.1173 0004303 134.7574 225.3784 15.92211804103043
UCLSAT                  
1 42765U 17036A   19073.12812109  .00001095  00000-0  50221-4 0  9994
2 42765  97.3638 133.1513 0010950 201.4261 158.6518 15.22488350 95770
LITUANICASAT-2          
1 42768U 17036D   19072.90794150  .00001761  00000-0  79114-4 0  9999
2 42768  97.3670 132.4990 0015010 194.0506 166.0315 15.22377239 95581
AALTO-1                 
1 42775U 17036L   19073.16701296  .00000702  00000-0  34535-4 0  9997
2 42775  97.3627 132.1538 0013704 192.3338 167.7564 15.21164952 95532
URSA MAIOR              
1 42776U 17036M   19073.13575335  .00000757  00000-0  36880-4 0  9993
2 42776  97.3636 132.2409 0013537 192.2890 167.8017 15.21284857 95538
COMPASS 2               
1 42777U 17036N   19072.86909146  .00001414  00000-0  63816-4 0  9994
2 42777  97.3669 132.9035 0012306 194.2248 165.8644 15.22554161 95532
DIAMOND RED             
1 42783U 17036U   19072.87709670  .00000860  00000-0  40681-4 0  9991
2 42783  97.3640 132.5833 0011595 203.3950 156.6760 15.21985587 95526
PEGASUS                 
1 42784U 17036V   19072.80823088  .00000991  00000-0  46063-4 0  9990
2 42784  97.3644 132.6900 0011470 203.3854 156.6862 15.22251664 95528
DIAMOND GREEN           
1 42785U 17036W   19072.61292180  .00000903  00000-0  42546-4 0  9998
2 42785  97.3643 132.3456 0011436 204.9612 155.1072 15.21984425 95559
DIAMOND BLUE            
1 42786U 17036X   19072.87490714  .00000868  00000-0  41016-4 0  9991
2 42786  97.3643 132.6013 0011284 204.2004 155.8703 15.21984617 95596
NUDTSAT                 
1 42787U 17036Y   19073.12641903  .00001464  00000-0  64988-4 0  9995
2 42787  97.3683 133.5287 0009667 203.0841 156.9970 15.23097184 95440
SUCHAI                  
1 42788U 17036Z   19072.70889177  .00001203  00000-0  54647-4 0  9998
2 42788  97.3648 132.8288 0011074 202.7987 157.2759 15.22622480 95594
SKCUBE                  
1 42789U 17036AA  19072.71889108  .00001106  00000-0  50625-4 0  9998
2 42789  97.3644 132.7995 0010939 202.6774 157.3980 15.22541219 95516
VZLUSAT-1               
1 42790U 17036AB  19072.71924914  .00001461  00000-0  64839-4 0  9991
2 42790  97.3656 133.1329 0010569 201.8174 158.2614 15.23104219 95533
ROBUSTA-1B              
1 42792U 17036AD  19072.85729280  .00001130  00000-0  51399-4 0  9997
2 42792  97.3644 133.0582 0010513 202.6705 157.4068 15.22704291 95551
CICERO 6                
1 42793U 17036AE  19073.15710491  .00000782  00000-0  36818-4 0  9997
2 42793  97.3629 133.2115 0009708 202.7193 157.3616 15.22381721 95664
D-SAT                   
1 42794U 17036AF  19072.83724160  .00000203  00000-0  22818-4 0  9993
2 42794  97.5536 121.7317 0128266 104.3276 257.2223 14.91036195 93906
TOKI                    
1 42820U 98067MU  19073.20077228  .00103287  15050-4  33902-3 0  9990
2 42820  51.6286  49.8453 0004483 101.2097 258.9413 15.90453314 96448
MAZAALAI (NUMSAT-1)     
1 42822U 98067MW  19073.21662113  .00091584  00000-0  31716-3 0  9998
2 42822  51.6303  51.5041 0004367 104.7513 255.3976 15.88707004 96401
BRAC ONNESHA            
1 42823U 98067MX  19073.16073584  .00115491  00000-0  38059-3 0  9992
2 42823  51.6275  51.1080 0005216 110.9995 249.1569 15.89600000 96404
NIGERIAEDUSAT-1         
1 42824U 98067MY  19073.20292379  .00089458  00000-0  31479-3 0  9995
2 42824  51.6310  52.2280 0004937 117.2213 242.9295 15.88391249 96386
CORVUS BC2              
1 42846U 17042X   19072.69899086 -.00000001  00000-0  52260-5 0  9994
2 42846  97.5768 330.5063 0010322  26.8979 333.2773 14.91931687 90553
CORVUS BC1              
1 42847U 17042Y   19073.19523831  .00000304  00000-0  35290-4 0  9991
2 42847  97.5767 331.0741 0009880  25.0113 335.1584 14.92031861 90625
SILU-1 (SILKROAD 1)     
1 42903U 17021F   19073.12541119  .00190787  23205-4  35595-3 0  9991
2 42903  42.7687 109.7341 0015119  78.6367  23.5657 16.00067014 92669
MIRATA                  
1 43015U 17073C   19072.72760026  .00000834  00000-0  69868-4 0  9996
2 43015  97.7182 357.7369 0257475 113.5762 249.2717 14.78735850 70966
MAKERSAT 0              
1 43016U 17073D   19072.72762725  .00000587  00000-0  50578-4 0  9998
2 43016  97.7215 357.9257 0259429 113.8114 249.0527 14.78561145 70968
ASTERIA                 
1 43020U 98067NH  19073.21757996  .00015435  00000-0  14975-3 0  9992
2 43020  51.6417  91.1132 0002988  94.3696 265.7642 15.66555943 74716
DELLINGR (RBLE)         
1 43021U 98067NJ  19072.99528071  .00008063  00000-0  98707-4 0  9992
2 43021  51.6383 100.0445 0002925  86.7943 273.3385 15.61384039 74571
AEROCUBE 7B (OCSD B)    
1 43042U 17071F   19073.19354366  .00002399  00000-0  67929-4 0  9996
2 43042  51.6382 164.4730 0004845 161.4248 198.6914 15.40553097 71209
AEROCUBE 7C (OCSD C)    
1 43043U 17071G   19073.19394022  .00002892  00000-0  79885-4 0  9992
2 43043  51.6384 164.4881 0004926 162.8754 197.2398 15.40535158 71171
CHEFSAT                 
1 43044U 17071H   19072.62175272  .00004751  00000-0  11664-3 0  9990
2 43044  51.6385 163.7520 0004633 160.8708 199.2453 15.42638392 71133
ASGARDIA 1              
1 43049U 17071N   19073.21865411  .00002635  00000-0  73376-4 0  9990
2 43049  51.6390 163.9232 0002366 176.8020 183.2981 15.40653290 71176
ISARA                   
1 43050U 17071P   19072.47851911  .00004899  00000-0  12161-3 0  9997
2 43050  51.6378 165.0152 0002150 171.6228 188.4794 15.42221696 71095
PROPCUBE 2 (FAUNA)      
1 43052U 17071R   19072.46213138  .00003392  00000-0  90969-4 0  9991
2 43052  51.6388 167.1376 0002332 169.3395 190.7639 15.40880331 71066
CORVUS BC3              
1 43118U 18004H   19072.74591669  .00000707  00000-0  33406-4 0  9990
2 43118  97.4975 140.3784 0009327 225.2202 134.8276 15.22672742 64721
MICROMAS-2A             
1 43131U 18004W   19072.95802380  .00001634  00000-0  70985-4 0  9996
2 43131  97.4995 141.0753 0008397 225.9550 134.0995 15.23733474 64788
CICERO 7                
1 43143U 18004AJ  19072.72935475  .00001311  00000-0  57204-4 0  9997
2 43143  97.4984 141.0515 0006279 236.4842 123.5795 15.23938500 64769
GOMX-4B                 
1 43196U 18015E   19072.91586489  .00000305  00000-0  15579-4 0  9996
2 43196  97.3754 201.9255 0017769 291.2709  68.6630 15.23829426 61608
